[{"OBJECT_NAME":"STARLINK-34401","OBJECT_ID":"2025-147C","EPOCH":"2026-03-09T17:33:48.700224","MEAN_MOTION":15.3019119,"ECCENTRICITY":0.00010615,"INCLINATION":53.1596,"RA_OF_ASC_NODE":242.8826,"ARG_OF_PERICENTER":53.5782,"MEAN_ANOMALY":306.5317,"EPHEMERIS_TYPE":0,"CLASSIFICATION_TYPE":"U","NORAD_CAT_ID":64757,"ELEMENT_SET_NO":999,"REV_AT_EPOCH":3868,"BSTAR":0.00064941035,"MEAN_MOTION_DOT":0.00018918,"MEAN_MOTION_DDOT":0},{"OBJECT_NAME":"GEOSCAN 3 (RS92S3)","OBJECT_ID":"2025-155T","EPOCH":"2026-03-09T22:52:10.587648","MEAN_MOTION":15.31696739,"ECCENTRICITY":0.00068078,"INCLINATION":97.4455,"RA_OF_ASC_NODE":37.9971,"ARG_OF_PERICENTER":154.1387,"MEAN_ANOMALY":206.0196,"EPHEMERIS_TYPE":0,"CLASSIFICATION_TYPE":"U","NORAD_CAT_ID":64893,"ELEMENT_SET_NO":999,"REV_AT_EPOCH":6564,"BSTAR":0.00078414081,"MEAN_MOTION_DOT":0.00023985,"MEAN_MOTION_DDOT":0}]
